NORAD_CAT_ID,OBJECT_NAME,OBJECT_TYPE,EPOCH,MEAN_MOTION,ECCENTRICITY,INCLINATION,RA_OF_ASC_NODE,ARG_OF_PERICENTER,MEAN_ANOMALY,BSTAR,MEAN_MOTION_DOT,MEAN_MOTION_DDOT,TLE_LINE0,TLE_LINE1,TLE_LINE2,SEMIMAJOR_AXIS,PERIOD,APOGEE,PERIGEE,DECAYED
53149.0,STARLINK-4021,PAYLOAD,2024-02-29 21:11:00,15.08848833,0.0001123,53.2149,240.9549,86.1358,273.9763,0.00017017,2.422e-05,0.0,0 STARLINK-4021,1 53149U 22083T   24060.88264468  .00002422  00000-0  17017-3 0  9994,2 53149  53.2149 240.9549 0001123  86.1358 273.9763 15.08848833 89821,6917.853,95.437,540.495,538.942,0.0
53149.0,STARLINK-4021,PAYLOAD,2024-03-01 11:29:29,15.08841299,0.0001518,53.217,238.2809,85.8289,274.2877,7.2681e-05,8.69e-06,0.0,0 STARLINK-4021,1 53149U 22083T   24061.47881394  .00000869  00000-0  72681-4 0  9995,2 53149  53.2170 238.2809 0001518  85.8289 274.2877 15.08841299 90541,6917.876,95.437,540.792,538.691,0.0
53149.0,STARLINK-4021,PAYLOAD,2024-03-01 17:51:01,15.08841593,0.0001307,53.2163,237.091,87.3845,272.7297,6.4493e-05,7.39e-06,0.0,0 STARLINK-4021,1 53149U 22083T   24061.74377282  .00000739  00000-0  64493-4 0  9999,2 53149  53.2163 237.0910 0001307  87.3845 272.7297 15.08841593 89953,6917.876,95.437,540.645,538.836,0.0
53149.0,STARLINK-4021,PAYLOAD,2024-03-02 17:41:48,15.08845698,0.0001281,53.2148,232.6296,87.4063,272.7076,0.00017472,2.494e-05,0.0,0 STARLINK-4021,1 53149U 22083T   24062.73736876  .00002494  00000-0  17472-3 0  9991,2 53149  53.2148 232.6296 0001281  87.4063 272.7076 15.08845698 90731,6917.863,95.437,540.614,538.842,0.0
53149.0,STARLINK-4021,PAYLOAD,2024-03-03 11:11:03,15.08834709,0.0001558,53.2169,229.3585,98.1628,261.9541,0.0002838,4.231e-05,0.0,0 STARLINK-4021,1 53149U 22083T   24063.46601525  .00004231  00000-0  28380-3 0  9995,2 53149  53.2169 229.3585 0001558  98.1628 261.9541 15.08834709 90841,6917.897,95.438,540.839,538.684,0.0
53149.0,STARLINK-4021,PAYLOAD,2024-03-03 14:21:49,15.08834854,0.0001505,53.2166,228.7642,97.3448,262.7715,0.00030735,4.606e-05,0.0,0 STARLINK-4021,1 53149U 22083T   24063.59849522  .00004606  00000-0  30735-3 0  9993,2 53149  53.2166 228.7642 0001505  97.3448 262.7715 15.08834854 90234,6917.896,95.438,540.802,538.72,0.0
53149.0,STARLINK-4021,PAYLOAD,2024-03-03 17:32:35,15.08842499,0.000155,53.2176,228.1695,98.4491,261.6677,8.4318e-05,1.054e-05,0.0,0 STARLINK-4021,1 53149U 22083T   24063.73097004  .00001054  00000-0  84318-4 0  9990,2 53149  53.2176 228.1695 0001550  98.4491 261.6677 15.08842499 90258,6917.873,95.437,540.81,538.665,0.0
53149.0,STARLINK-4021,PAYLOAD,2024-03-04 14:12:35,15.08852207,0.0001501,53.2163,224.3027,97.9884,262.1278,0.00014816,2.072e-05,0.0,0 STARLINK-4021,1 53149U 22083T   24064.59208157  .00002072  00000-0  14816-3 0  9994,2 53149  53.2163 224.3027 0001501  97.9884 262.1278 15.08852207 90382,6917.843,95.437,540.746,538.67,0.0
53149.0,STARLINK-4021,PAYLOAD,2024-03-04 17:23:21,15.08855488,0.0001532,53.2166,223.708,98.3521,261.7645,0.00019282,2.783e-05,0.0,0 STARLINK-4021,1 53149U 22083T   24064.72455927  .00002783  00000-0  19282-3 0  9999,2 53149  53.2166 223.7080 0001532  98.3521 261.7645 15.08855488 91034,6917.833,95.437,540.758,538.638,0.0
53149.0,STARLINK-4021,PAYLOAD,2024-03-05 14:03:24,15.08808325,0.0001515,53.2165,219.8426,102.6519,257.4643,-0.00058033,-9.504e-05,0.0,0 STARLINK-4021,1 53149U 22083T   24065.58569939 -.00009504  00000-0 -58033-3 0  9990,2 53149  53.2165 219.8426 0001515 102.6519 257.4643 15.08808325 90532,6917.977,95.44,540.89,538.794,0.0
53149.0,STARLINK-4021,PAYLOAD,2024-03-05 17:14:10,15.08807329,0.0001275,53.2156,219.2482,90.2522,269.8616,-0.00053173,-8.733e-05,0.0,0 STARLINK-4021,1 53149U 22083T   24065.71818253 -.00008733  00000-0 -53173-3 0  9994,2 53149  53.2156 219.2482 0001275  90.2522 269.8616 15.08807329 91189,6917.98,95.44,540.727,538.963,0.0
53149.0,STARLINK-4021,PAYLOAD,2024-03-06 09:08:03,15.08813353,0.0001225,53.2151,216.2732,81.6383,278.4748,-0.0001532,-2.723e-05,0.0,0 STARLINK-4021,1 53149U 22083T   24066.38059419 -.00002723  00000-0 -15320-3 0  9994,2 53149  53.2151 216.2732 0001225  81.6383 278.4748 15.08813353 91280,6917.962,95.439,540.674,538.979,0.0
53149.0,STARLINK-4021,PAYLOAD,2024-03-06 13:54:12,15.08819624,0.0001244,53.2155,215.3828,87.4791,272.6343,0.00022015,3.216e-05,0.0,0 STARLINK-4021,1 53149U 22083T   24066.57931615  .00003216  00000-0  22015-3 0  9997,2 53149  53.2155 215.3828 0001244  87.4791 272.6343 15.08819624 90685,6917.943,95.439,540.668,538.947,0.0
53149.0,STARLINK-4021,PAYLOAD,2024-03-07 02:37:18,15.08842752,0.0001254,53.2151,213.0041,89.3744,270.7392,0.0011685,0.00018359,0.0,0 STARLINK-4021,1 53149U 22083T   24067.10924167  .00018359  00000-0  11685-2 0  9995,2 53149  53.2151 213.0041 0001254  89.3744 270.7392 15.08842752 91393,6917.872,95.437,540.604,538.869,0.0
53149.0,STARLINK-4021,PAYLOAD,2024-03-07 13:44:59,15.08867513,0.0001224,53.2148,210.9223,86.2501,273.8631,0.0013527,0.00021322,0.0,0 STARLINK-4021,1 53149U 22083T   24067.57291546  .00021322  00000-0  13527-2 0  9995,2 53149  53.2148 210.9223 0001224  86.2501 273.8631 15.08867513 90831,6917.796,95.436,540.508,538.815,0.0
53149.0,STARLINK-4021,PAYLOAD,2024-03-09 02:18:50,15.08870858,0.0001378,53.2159,204.0803,73.1985,286.9159,0.00072465,0.00011273,0.0,0 STARLINK-4021,1 53149U 22083T   24069.09641652  .00011273  00000-0  72465-3 0  9992,2 53149  53.2159 204.0803 0001378  73.1985 286.9159 15.08870858 91693,6917.786,95.436,540.604,538.698,0.0
53149.0,STARLINK-4021,PAYLOAD,2024-03-09 08:40:23,15.08857023,0.0003151,53.2131,202.894,75.8064,284.3278,0.00063356,9.814e-05,0.0,0 STARLINK-4021,1 53149U 22083T   24069.36138143  .00009814  00000-0  63356-3 0  9995,2 53149  53.2131 202.8940 0003151  75.8064 284.3278 15.08857023 91737,6917.828,95.436,541.873,537.514,0.0
53149.0,STARLINK-4021,PAYLOAD,2024-03-09 15:01:55,15.08836498,0.0001351,53.2148,201.7041,73.8698,286.2442,0.00034565,5.217e-05,0.0,0 STARLINK-4021,1 53149U 22083T   24069.62633706  .00005217  00000-0  34565-3 0  9992,2 53149  53.2148 201.7041 0001351  73.8698 286.2442 15.08836498 91148,6917.891,95.438,540.691,538.821,0.0
53149.0,STARLINK-4021,PAYLOAD,2024-03-09 18:12:42,15.08837098,0.0001479,53.2137,201.109,74.8144,285.3012,0.00069849,0.00010845,0.0,0 STARLINK-4021,1 53149U 22083T   24069.75881984  .00010845  00000-0  69849-3 0  9995,2 53149  53.2137 201.1090 0001479  74.8144 285.3012 15.08837098 91793,6917.889,95.438,540.777,538.731,0.0
53149.0,STARLINK-4021,PAYLOAD,2024-03-10 11:41:56,15.08840775,0.0001711,53.2132,197.8343,90.1392,269.9796,0.00050707,7.791e-05,0.0,0 STARLINK-4021,1 53149U 22083T   24070.48746241  .00007791  00000-0  50707-3 0  9992,2 53149  53.2132 197.8343 0001711  90.1392 269.9796 15.08840775 91901,6917.878,95.438,540.927,538.559,0.0
53149.0,STARLINK-4021,PAYLOAD,2024-03-10 14:52:43,15.08841954,0.0001208,53.2168,197.2404,89.4382,270.6749,0.00059819,9.246e-05,0.0,0 STARLINK-4021,1 53149U 22083T   24070.61994255  .00009246  00000-0  59819-3 0  9997,2 53149  53.2168 197.2404 0001208  89.4382 270.6749 15.08841954 91292,6917.874,95.437,540.575,538.904,0.0
53149.0,STARLINK-4021,PAYLOAD,2024-03-10 18:03:29,15.08845331,0.0001345,53.2164,196.6457,88.7812,271.3334,0.00057673,8.904e-05,0.0,0 STARLINK-4021,1 53149U 22083T   24070.75242191  .00008904  00000-0  57673-3 0  9993,2 53149  53.2164 196.6457 0001345  88.7812 271.3334 15.08845331 91315,6917.864,95.437,540.66,538.799,0.0
53149.0,STARLINK-4021,PAYLOAD,2024-03-11 11:32:43,15.08841921,0.0001512,53.2152,193.3729,93.2354,266.8811,0.00024056,3.543e-05,0.0,0 STARLINK-4021,1 53149U 22083T   24071.48106294  .00003543  00000-0  24056-3 0  9990,2 53149  53.2152 193.3729 0001512  93.2354 266.8811 15.08841921 92058,6917.875,95.437,540.785,538.694,0.0
53149.0,STARLINK-4021,PAYLOAD,2024-03-11 14:43:30,15.08844051,0.0001347,53.2153,192.7793,87.5089,272.6057,0.00025492,3.772e-05,0.0,0 STARLINK-4021,1 53149U 22083T   24071.61354228  .00003772  00000-0  25492-3 0  9996,2 53149  53.2153 192.7793 0001347  87.5089 272.6057 15.08844051 91446,6917.868,95.437,540.665,538.801,0.0
53149.0,STARLINK-4021,PAYLOAD,2024-03-12 11:23:30,15.08840416,0.0001268,53.2151,188.9135,87.7167,272.3971,0.00014286,1.986e-05,0.0,0 STARLINK-4021,1 53149U 22083T   24072.47466398  .00001986  00000-0  14286-3 0  9997,2 53149  53.2151 188.9135 0001268  87.7167 272.3971 15.08840416 92200,6917.879,95.438,540.621,538.867,0.0
53149.0,STARLINK-4021,PAYLOAD,2024-03-12 14:34:17,15.08844295,0.0001313,53.2148,188.3199,81.6486,278.4655,0.00020668,3.003e-05,0.0,0 STARLINK-4021,1 53149U 22083T   24072.60714172  .00003003  00000-0  20668-3 0  9991,2 53149  53.2148 188.3199 0001313  81.6486 278.4655 15.08844295 91594,6917.867,95.437,540.641,538.824,0.0
53149.0,STARLINK-4021,PAYLOAD,2024-03-13 14:25:04,15.08846122,0.0001582,53.2182,183.8654,95.4806,264.6366,0.00014394,2.004e-05,0.0,0 STARLINK-4021,1 53149U 22083T   24073.60074226  .00002004  00000-0  14394-3 0  9990,2 53149  53.2182 183.8654 0001582  95.4806 264.6366 15.08846122 91749,6917.862,95.437,540.821,538.632,0.0
53149.0,STARLINK-4021,PAYLOAD,2024-03-14 15:51:13,15.08851865,0.0001776,53.2157,179.1017,79.7096,280.4096,0.00023118,3.394e-05,0.0,0 STARLINK-4021,1 53149U 22083T   24074.66057774  .00003394  00000-0  23118-3 0  9993,2 53149  53.2157 179.1017 0001776  79.7096 280.4096 15.08851865 92537,6917.844,95.437,540.938,538.481,0.0
53149.0,STARLINK-4021,PAYLOAD,2024-03-15 12:31:15,15.08839344,0.0001465,53.2166,175.2429,94.7588,265.3571,1.9989e-05,3e-07,0.0,0 STARLINK-4021,1 53149U 22083T   24075.52170285  .00000030  00000-0  19989-4 0  9998,2 53149  53.2166 175.2429 0001465  94.7588 265.3571 15.08839344 92661,6917.882,95.438,540.761,538.734,0.0
53149.0,STARLINK-4021,PAYLOAD,2024-03-15 15:42:01,15.08840461,0.0001492,53.2167,174.6474,93.6935,266.4227,5.0124e-05,5.1e-06,0.0,0 STARLINK-4021,1 53149U 22083T   24075.65418242  .00000510  00000-0  50124-4 0  9999,2 53149  53.2167 174.6474 0001492  93.6935 266.4227 15.08840461 92054,6917.879,95.438,540.776,538.712,0.0
